BEIDOU-2 G8             
1 44231U 19027A   26166.51989272 -.00000246  00000+0  00000+0 0  9998
2 44231   1.6529  74.4966 0010239 281.9203 239.0924  1.00271249 26064
COSMOS 2534 [GLONASS-M] 
1 44299U 19030A   26166.21498111  .00000091  00000+0  00000+0 0  9997
2 44299  64.3685 192.6830 0013363 275.1527 150.9503  2.13102143 54881
BEIDOU-3 IGSO-2         
1 44337U 19035A   26165.62361995 -.00000071  00000+0  00000+0 0  9997
2 44337  55.2456 158.8849 0039904 216.4592 231.8306  1.00267330 25649
NAVSTAR 78 (USA 293)    
1 44506U 19056A   26165.65647936 -.00000079  00000+0  00000+0 0  9991
2 44506  55.6383 331.2431 0061979 197.6027 162.4715  2.00569399 50028
BEIDOU-3 M24            
1 44542U 19061A   26166.09464848  .00000088  00000+0  00000+0 0  9994
2 44542  54.3961 182.7987 0008258 358.6686   1.3778  1.86229179 45758
BEIDOU-3 M23            
1 44543U 19061B   26166.22778992  .00000086  00000+0  00000+0 0  9996
2 44543  54.3948 182.7623 0005651 338.0000  22.9166  1.86227199 45768
EUTELSAT 5 WEST B       
1 44624U 19067A   26166.32930447 -.00000039  00000+0  00000+0 0  9997
2 44624   0.0632   3.1084 0002871  79.2181 294.8621  1.00272088 24416
BEIDOU-3 IGSO-3         
1 44709U 19073A   26136.81046384 -.00000217  00000+0  00000+0 0  9995
2 44709  54.8566 281.2355 0042953 189.4588 170.3676  1.00246251 24144
BEIDOU-3 M22            
1 44793U 19078A   26165.39744772 -.00000068  00000+0  00000+0 0  9998
2 44793  53.9389 299.9266 0006427  50.6128 309.4281  1.86227270 44594
BEIDOU-3 M21            
1 44794U 19078B   26164.46345251 -.00000068  00000+0  00000+0 0  9995
2 44794  53.9128 299.9208 0004278  48.5109 311.5090  1.86227756 44589
COSMOS 2544 [GLONASS-M] 
1 44850U 19088A   26165.68306459 -.00000026  00000+0  00000+0 0  9995
2 44850  65.5641  73.8147 0013199 258.7449 101.1313  2.13102561 50660
BEIDOU-3 M19            
1 44864U 19090A   26165.52330763 -.00000053  00000+0  00000+0 0  9991
2 44864  56.5562  62.8792 0017922 297.9457 249.9520  1.86231333 44183
BEIDOU-3 M20            
1 44865U 19090B   26165.37355236 -.00000054  00000+0  00000+0 0  9998
2 44865  56.5581  62.9188 0015705 311.9742 225.1097  1.86231348 44165
BEIDOU-3 G2             
1 45344U 20017A   26166.48875759 -.00000140  00000+0  00000+0 0  9998
2 45344   2.8599  47.3004 0002047  32.2706  80.2316  1.00272146 23240
COSMOS 2545 [GLONASS-M] 
1 45358U 20018A   26165.40880204 -.00000054  00000+0  00000+0 0  9990
2 45358  64.3567 312.5170 0008337 230.3035 129.6070  2.13102514 48606
BEIDOU-3 G3             
1 45807U 20040A   26166.49466228 -.00000352  00000+0  00000+0 0  9991
2 45807   2.4422  67.4374 0002420 335.4467 149.4992  1.00267338 22058
NAVSTAR 79 (USA 304)    
1 45854U 20041A   26162.56161249 -.00000063  00000+0  00000+0 0  9992
2 45854  56.6657  29.1622 0063604 204.6361  19.3768  2.00558626 43922
GALAXY 30 (G-30)        
1 46114U 20056C   26166.47405839  .00000040  00000+0  00000+0 0  9992
2 46114   0.0176   9.2830 0002078  75.6246 224.5068  1.00270776 21270
COSMOS 2547 [GLONASS-K] 
1 46805U 20075A   26163.72129992  .00000119  00000+0  00000+0 0  9995
2 46805  64.5993 192.6246 0009245 239.6069 120.3788  2.13100258 43813
NAVSTAR 80 (USA 309)    
1 46826U 20078A   26166.28723537  .00000071  00000+0  00000+0 0  9997
2 46826  53.9800 210.8558 0073451 207.1439 163.1442  2.00564761 41476
NAVSTAR 81 (USA 319)    
1 48859U 21054A   26165.49119520 -.00000079  00000+0  00000+0 0  9992
2 48859  55.1759 332.5679 0025337 228.5758 113.1489  2.00568903 36694
QZS-1R (MICHIBIKI-1R)   
1 49336U 21096A   26165.64224595 -.00000276  00000+0  00000+0 0  9994
2 49336  37.4568  79.6218 0754676 271.7468 276.9403  1.00256090 16981
GSAT0223 (GALILEO 27)   
1 49809U 21116A   26162.13215269 -.00000065  00000+0  00000+0 0  9997
2 49809  57.1623 341.8389 0001404 187.4451 176.2704  1.70475860 28084
GSAT0224 (GALILEO 28)   
1 49810U 21116B   26165.45828332 -.00000078  00000+0  00000+0 0  9992
2 49810  57.1622 341.7473 0001118 160.2800 197.3797  1.70475791 28154
COSMOS 2557 [GLONASS-K] 
1 52984U 22075A   26163.88559135 -.00000051  00000+0  00000+0 0  9991
2 52984  64.3011 314.6375 0010222 275.3123  84.5589  2.13102288 30621
COSMOS 2559 [GLONASS-K] 
1 54031U 22130A   26165.58225646 -.00000055  00000+0  00000+0 0  9998
2 54031  64.2727 314.6603 0012509 177.7310 182.2594  2.13101528 28632
COSMOS 2564 [GLONASS-M] 
1 54377U 22161A   26165.42556716  .00000103  00000+0  00000+0 0  9996
2 54377  64.7414 192.8035 0012164 224.6167 135.3579  2.13101987 27570
NAVSTAR 82 (USA 343)    
1 55268U 23009A   26163.12704838  .00000093  00000+0  00000+0 0  9991
2 55268  55.1221 148.7180 0006256 318.1997 154.6775  2.00571745 25148
BEIDOU-3 G4             
1 56564U 23066A   26166.50060815 -.00000278  00000+0  00000+0 0  9995
2 56564   0.4884 331.0501 0004299 181.7940  71.1729  1.00274206 11370
NVS-01 (IRNSS-1J)       
1 56759U 23076A   26166.49852815 -.00000332  00000+0  00000+0 0  9990
2 56759   2.1698 244.4295 0003200  36.4394 291.8698  1.00265429 11097
COSMOS 2569 [GLONASS-K2]
1 57517U 23114A   26164.03009862 -.00000032  00000+0  00000+0 0  9997
2 57517  65.2998  72.7606 0010818 296.8248  63.0846  2.13103647 22177
