OBJECT_NAME,OBJECT_ID,EPOCH,MEAN_MOTION,ECCENTRICITY,INCLINATION,RA_OF_ASC_NODE,ARG_OF_PERICENTER,MEAN_ANOMALY,EPHEMERIS_TYPE,CLASSIFICATION_TYPE,NORAD_CAT_ID,ELEMENT_SET_NO,REV_AT_EPOCH,BSTAR,MEAN_MOTION_DOT,MEAN_MOTION_DDOT
BEIDOU-2 G8 (C01),2019-027A,2026-06-15T12:28:38.731008,1.00271249,.0010239,1.6529,74.4966,281.9203,239.0924,0,U,44231,999,2606,0,-.246E-5,0
COSMOS 2534 (758),2019-030A,2026-06-15T05:09:34.367904,2.13102143,.00133637,64.3685,192.6830,275.1527,150.9503,0,U,44299,999,5488,0,.91E-6,0
BEIDOU-3 IGSO-2 (C39),2019-035A,2026-06-14T14:58:00.763680,1.00267330,.0039904,55.2456,158.8849,216.4592,231.8306,0,U,44337,999,2564,0,-.71E-6,0
GPS BIII-2  (PRN 18),2019-056A,2026-06-14T15:45:19.816704,2.00569399,.00619797,55.6383,331.2431,197.6027,162.4715,0,U,44506,999,5002,0,-.79E-6,0
BEIDOU-3 M24 (C46),2019-061A,2026-06-15T02:16:17.628672,1.86229179,.0008258,54.3961,182.7987,358.6686,1.3778,0,U,44542,999,4575,0,.88E-6,0
BEIDOU-3 M23 (C45),2019-061B,2026-06-15T05:28:01.049088,1.86227199,.0005651,54.3948,182.7623,338.0000,22.9166,0,U,44543,999,4576,0,.86E-6,0
EUTELSAT 5 WEST B (EGNOS/PRN 121),2019-067A,2026-06-15T07:54:11.906208,1.00272088,.0002871,0.0632,3.1084,79.2181,294.8621,0,U,44624,999,2441,0,-.39E-6,0
BEIDOU-3 IGSO-3 (C40),2019-073A,2026-05-16T19:27:04.075776,1.00246251,.0042953,54.8566,281.2355,189.4588,170.3676,0,U,44709,999,2414,0,-.217E-5,0
BEIDOU-3 M22 (C44),2019-078A,2026-06-14T09:32:19.483008,1.86227270,.00064274,53.9389,299.9266,50.6128,309.4281,0,U,44793,999,4459,0,-.68E-6,0
BEIDOU-3 M21 (C43),2019-078B,2026-06-13T11:07:22.296864,1.86227756,.00042788,53.9128,299.9208,48.5109,311.5090,0,U,44794,999,4458,0,-.68E-6,0
COSMOS 2544 (759),2019-088A,2026-06-14T16:23:36.780576,2.13102561,.0013199,65.5641,73.8147,258.7449,101.1313,0,U,44850,999,5066,0,-.26E-6,0
BEIDOU-3 M19 (C41),2019-090A,2026-06-14T12:33:33.779232,1.86231333,.00179222,56.5562,62.8792,297.9457,249.9520,0,U,44864,999,4418,0,-.53E-6,0
BEIDOU-3 M20 (C42),2019-090B,2026-06-14T08:57:54.923904,1.86231348,.00157052,56.5581,62.9188,311.9742,225.1097,0,U,44865,999,4416,0,-.54E-6,0
BEIDOU-3 G2 (C60),2020-017A,2026-06-15T11:43:48.655776,1.00272146,.0002047,2.8599,47.3004,32.2706,80.2316,0,U,45344,999,2324,0,-.14E-5,0
COSMOS 2545 (760),2020-018A,2026-06-14T09:48:40.496256,2.13102514,.00083379,64.3567,312.5170,230.3035,129.6070,0,U,45358,999,4860,0,-.54E-6,0
BEIDOU-3 G3 (C61),2020-040A,2026-06-15T11:52:18.820992,1.00267338,.000242,2.4422,67.4374,335.4467,149.4992,0,U,45807,999,2205,0,-.352E-5,0
GPS BIII-3  (PRN 23),2020-041A,2026-06-11T13:28:43.319136,2.00558626,.0063604,56.6657,29.1622,204.6361,19.3768,0,U,45854,999,4392,0,-.63E-6,0
GALAXY 30 (WAAS/PRN 135),2020-056C,2026-06-15T11:22:38.644896,1.00270776,.0002078,0.0176,9.2830,75.6246,224.5068,0,U,46114,999,2127,0,.4E-6,0
COSMOS 2547 (705K),2020-075A,2026-06-12T17:18:40.313088,2.13100258,.00092459,64.5993,192.6246,239.6069,120.3788,0,U,46805,999,4381,0,.119E-5,0
GPS BIII-4  (PRN 14),2020-078A,2026-06-15T06:53:37.135968,2.00564761,.0073451,53.9800,210.8558,207.1439,163.1442,0,U,46826,999,4147,0,.71E-6,0
GPS BIII-5  (PRN 11),2021-054A,2026-06-14T11:47:19.265280,2.00568903,.0025337,55.1759,332.5679,228.5758,113.1489,0,U,48859,999,3669,0,-.79E-6,0
QZS-1R (QZSS/PRN 196),2021-096A,2026-06-14T15:24:50.050080,1.00256090,.07546764,37.4568,79.6218,271.7468,276.9403,0,U,49336,999,1698,0,-.276E-5,0
GSAT0223 (GALILEO 27),2021-116A,2026-06-11T03:10:17.992416,1.70475860,.00014044,57.1623,341.8389,187.4451,176.2704,0,U,49809,999,2808,0,-.65E-6,0
GSAT0224 (GALILEO 28),2021-116B,2026-06-14T10:59:55.678848,1.70475791,.00011186,57.1622,341.7473,160.2800,197.3797,0,U,49810,999,2815,0,-.78E-6,0
COSMOS 2557 (706K),2022-075A,2026-06-12T21:15:15.092640,2.13102288,.00102223,64.3011,314.6375,275.3123,84.5589,0,U,52984,999,3062,0,-.51E-6,0
COSMOS 2559 (707K),2022-130A,2026-06-14T13:58:26.958144,2.13101528,.00125096,64.2727,314.6603,177.7310,182.2594,0,U,54031,999,2863,0,-.55E-6,0
COSMOS 2564 (761),2022-161A,2026-06-14T10:12:49.002624,2.13101987,.00121644,64.7414,192.8035,224.6167,135.3579,0,U,54377,999,2757,0,.103E-5,0
GPS BIII-6  (PRN 28),2023-009A,2026-06-12T03:02:56.980032,2.00571745,.0006256,55.1221,148.7180,318.1997,154.6775,0,U,55268,999,2514,0,.93E-6,0
BEIDOU-3 G4 (C62),2023-066A,2026-06-15T12:00:52.544160,1.00274206,.0004299,0.4884,331.0501,181.7940,71.1729,0,U,56564,999,1137,0,-.278E-5,0
NVS-01 (IRNSS-1J),2023-076A,2026-06-15T11:57:52.832160,1.00265429,.00032,2.1698,244.4295,36.4394,291.8698,0,U,56759,999,1109,0,-.332E-5,0
COSMOS 2569 (703K),2023-114A,2026-06-13T00:43:20.520768,2.13103647,.00108188,65.2998,72.7606,296.8248,63.0846,0,U,57517,999,2217,0,-.32E-6,0
